start=new Date('2022-01-29T00:00:00.000Z').valueOf();
sats=[{"REV_AT_EPOCH":"4023","DECAY_DATE":null,"REF_FRAME":"TEME","NORAD_CAT_ID":"48437","APOAPSIS":"548.220","FILE":"3285972","ARG_OF_PERICENTER":"54.7761","TLE_LINE2":"2 48437  53.0455  90.4069 0001425  54.7761 305.3361 15.06393636 40232","MEAN_ELEMENT_THEORY":"SGP4","OBJECT_TYPE":"PAYLOAD","TIME_SYSTEM":"UTC","OBJECT_ID":"2021-040K","ELEMENT_SET_NO":"999","MEAN_MOTION":"15.06393636","INCLINATION":"53.0455","MEAN_MOTION_DDOT":"0.0000000000000","MEAN_MOTION_DOT":"-0.00000592","ECCENTRICITY":"0.00014250","PERIOD":"95.593","GP_ID":"194814557","PERIAPSIS":"546.246","EPOCH":"2022-01-28T13:52:24.460896","CLASSIFICATION_TYPE":"U","OBJECT_NAME":"STARLINK-2642","SITE":"AFETR","CENTER_NAME":"EARTH","COUNTRY_CODE":"US","RCS_SIZE":"LARGE","EPHEMERIS_TYPE":"0","SEMIMAJOR_AXIS":"6925.368","LAUNCH_DATE":"2021-05-09","BSTAR":"-0.00002087500000","RA_OF_ASC_NODE":"90.4069","MEAN_ANOMALY":"305.3361","TLE_LINE1":"1 48437U 21040K   22028.57806089 -.00000592  00000-0 -20875-4 0  9994"},{"CENTER_NAME":"EARTH","SITE":"AFETR","OBJECT_NAME":"STARLINK-2640","CLASSIFICATION_TYPE":"U","PERIAPSIS":"546.152","EPOCH":"2022-01-28T12:34:09.211872","GP_ID":"194814807","PERIOD":"95.593","MEAN_MOTION_DOT":"0.00001242","ECCENTRICITY":"0.00015650","MEAN_MOTION_DDOT":"0.0000000000000","INCLINATION":"53.0557","TLE_LINE1":"1 48438U 21040L   22028.52371773  .00001242  00000-0  10225-3 0  9995","MEAN_ANOMALY":"306.0974","RA_OF_ASC_NODE":"80.6225","LAUNCH_DATE":"2021-05-09","SEMIMAJOR_AXIS":"6925.371","BSTAR":"0.00010225000000","EPHEMERIS_TYPE":"0","RCS_SIZE":"LARGE","COUNTRY_CODE":"US","TIME_SYSTEM":"UTC","OBJECT_TYPE":"PAYLOAD","MEAN_ELEMENT_THEORY":"SGP4","TLE_LINE2":"2 48438  53.0557  80.6225 0001565  54.0159 306.0974 15.06392641 40367","ARG_OF_PERICENTER":"54.0159","FILE":"3285972","APOAPSIS":"548.320","NORAD_CAT_ID":"48438","REF_FRAME":"TEME","DECAY_DATE":null,"REV_AT_EPOCH":"4036","MEAN_MOTION":"15.06392641","ELEMENT_SET_NO":"999","OBJECT_ID":"2021-040L"},{"ELEMENT_SET_NO":"999","MEAN_MOTION":"15.06388410","OBJECT_ID":"2021-040M","TIME_SYSTEM":"UTC","OBJECT_TYPE":"PAYLOAD","TLE_LINE2":"2 48439  53.0549  80.0441 0001384  65.5013 294.6121 15.06388410 40385","MEAN_ELEMENT_THEORY":"SGP4","FILE":"3286235","ARG_OF_PERICENTER":"65.5013","APOAPSIS":"548.208","REF_FRAME":"TEME","NORAD_CAT_ID":"48439","REV_AT_EPOCH":"4038","DECAY_DATE":null,"MEAN_ANOMALY":"294.6121","TLE_LINE1":"1 48439U 21040M   22028.65270761 -.00000947  00000-0 -44677-4 0  9997","LAUNCH_DATE":"2021-05-09","BSTAR":"-0.00004467700000","SEMIMAJOR_AXIS":"6925.384","RA_OF_ASC_NODE":"80.0441","EPHEMERIS_TYPE":"0","RCS_SIZE":"LARGE","COUNTRY_CODE":"US","SITE":"AFETR","CENTER_NAME":"EARTH","EPOCH":"2022-01-28T15:39:53.937504","PERIAPSIS":"546.291","CLASSIFICATION_TYPE":"U","OBJECT_NAME":"STARLINK-2583","GP_ID":"194843601","PERIOD":"95.593","ECCENTRICITY":"0.00013840","MEAN_MOTION_DOT":"-0.00000947","INCLINATION":"53.0549","MEAN_MOTION_DDOT":"0.0000000000000"},{"SITE":"AFETR","CENTER_NAME":"EARTH","GP_ID":"194843851","EPOCH":"2022-01-28T13:59:02.754528","PERIAPSIS":"545.955","OBJECT_NAME":"STARLINK-2682","CLASSIFICATION_TYPE":"U","ECCENTRICITY":"0.00018320","MEAN_MOTION_DOT":"0.00001143","PERIOD":"95.592","INCLINATION":"53.0576","MEAN_MOTION_DDOT":"0.0000000000000","MEAN_ANOMALY":"296.8336","TLE_LINE1":"1 48440U 21040N   22028.58267077  .00001143  00000-0  95647-4 0  9997","LAUNCH_DATE":"2021-05-09","BSTAR":"0.00009564700000","SEMIMAJOR_AXIS":"6925.359","RA_OF_ASC_NODE":"80.3546","EPHEMERIS_TYPE":"0","COUNTRY_CODE":"US","RCS_SIZE":"LARGE","OBJECT_TYPE":"PAYLOAD","TIME_SYSTEM":"UTC","ARG_OF_PERICENTER":"63.2840","FILE":"3286235","MEAN_ELEMENT_THEORY":"SGP4","TLE_LINE2":"2 48440  53.0576  80.3546 0001832  63.2840 296.8336 15.06396620 40370","APOAPSIS":"548.493","REV_AT_EPOCH":"4037","DECAY_DATE":null,"REF_FRAME":"TEME","NORAD_CAT_ID":"48440","ELEMENT_SET_NO":"999","MEAN_MOTION":"15.06396620","OBJECT_ID":"2021-040N"},{"REV_AT_EPOCH":"4035","DECAY_DATE":null,"REF_FRAME":"TEME","NORAD_CAT_ID":"48441","APOAPSIS":"548.252","ARG_OF_PERICENTER":"61.3236","FILE":"3285972","MEAN_ELEMENT_THEORY":"SGP4","TLE_LINE2":"2 48441  53.0564  80.9621 0001488  61.3236 298.7902 15.06397558 40352","OBJECT_TYPE":"PAYLOAD","TIME_SYSTEM":"UTC","OBJECT_ID":"2021-040P","ELEMENT_SET_NO":"999","MEAN_MOTION":"15.06397558","INCLINATION":"53.0564","MEAN_MOTION_DDOT":"0.0000000000000","MEAN_MOTION_DOT":"-0.00000493","ECCENTRICITY":"0.00014880","PERIOD":"95.592","GP_ID":"194814058","EPOCH":"2022-01-28T10:42:39.036096","PERIAPSIS":"546.191","OBJECT_NAME":"STARLINK-2702","CLASSIFICATION_TYPE":"U","SITE":"AFETR","CENTER_NAME":"EARTH","COUNTRY_CODE":"US","RCS_SIZE":"LARGE","EPHEMERIS_TYPE":"0","SEMIMAJOR_AXIS":"6925.356","LAUNCH_DATE":"2021-05-09","BSTAR":"-0.00001420500000","RA_OF_ASC_NODE":"80.9621","MEAN_ANOMALY":"298.7902","TLE_LINE1":"1 48441U 21040P   22028.44628514 -.00000493  00000-0 -14205-4 0  9990"},{"APOAPSIS":"548.166","REV_AT_EPOCH":"4038","DECAY_DATE":null,"REF_FRAME":"TEME","NORAD_CAT_ID":"48442","OBJECT_TYPE":"PAYLOAD","TIME_SYSTEM":"UTC","FILE":"3286235","ARG_OF_PERICENTER":"76.6860","MEAN_ELEMENT_THEORY":"SGP4","TLE_LINE2":"2 48442  53.0545  80.0724 0001355  76.6860 283.4280 15.06395543 40387","ELEMENT_SET_NO":"999","MEAN_MOTION":"15.06395543","OBJECT_ID":"2021-040Q","ECCENTRICITY":"0.00013550","MEAN_MOTION_DOT":"-0.00000377","PERIOD":"95.592","INCLINATION":"53.0545","MEAN_MOTION_DDOT":"0.0000000000000","SITE":"AFETR","CENTER_NAME":"EARTH","GP_ID":"194845353","PERIAPSIS":"546.289","EPOCH":"2022-01-28T15:23:57.708096","CLASSIFICATION_TYPE":"U","OBJECT_NAME":"STARLINK-2644","EPHEMERIS_TYPE":"0","COUNTRY_CODE":"US","RCS_SIZE":"LARGE","MEAN_ANOMALY":"283.4280","TLE_LINE1":"1 48442U 21040Q   22028.64164014 -.00000377  00000-0 -64159-5 0  9998","BSTAR":"-0.00000641590000","LAUNCH_DATE":"2021-05-09","SEMIMAJOR_AXIS":"6925.362","RA_OF_ASC_NODE":"80.0724"},{"NORAD_CAT_ID":"48443","REF_FRAME":"TEME","DECAY_DATE":null,"REV_AT_EPOCH":"4037","APOAPSIS":"548.210","TLE_LINE2":"2 48443  53.0562  80.3897 0001378  71.2614 288.8525 15.06386407 40373","MEAN_ELEMENT_THEORY":"SGP4","ARG_OF_PERICENTER":"71.2614","FILE":"3286235","TIME_SYSTEM":"UTC","OBJECT_TYPE":"PAYLOAD","OBJECT_ID":"2021-040R","MEAN_MOTION":"15.06386407","ELEMENT_SET_NO":"999","MEAN_MOTION_DDOT":"0.0000000000000","INCLINATION":"53.0562","PERIOD":"95.593","ECCENTRICITY":"0.00013780","MEAN_MOTION_DOT":"-0.00000782","CLASSIFICATION_TYPE":"U","OBJECT_NAME":"STARLINK-2663","EPOCH":"2022-01-28T13:43:07.937760","PERIAPSIS":"546.301","GP_ID":"194844101","CENTER_NAME":"EARTH","SITE":"AFETR","RCS_SIZE":"LARGE","COUNTRY_CODE":"US","EPHEMERIS_TYPE":"0","RA_OF_ASC_NODE":"80.3897","SEMIMAJOR_AXIS":"6925.390","LAUNCH_DATE":"2021-05-09","BSTAR":"-0.00003363300000","TLE_LINE1":"1 48443U 21040R   22028.57161965 -.00000782  00000-0 -33633-4 0  9995","MEAN_ANOMALY":"288.8525"},{"MEAN_MOTION_DOT":"-0.00002033","ECCENTRICITY":"0.00012110","PERIOD":"95.593","INCLINATION":"53.0567","MEAN_MOTION_DDOT":"0.0000000000000","CENTER_NAME":"EARTH","SITE":"AFETR","GP_ID":"194813806","PERIAPSIS":"546.405","EPOCH":"2022-01-28T13:37:48.698400","OBJECT_NAME":"STARLINK-2645","CLASSIFICATION_TYPE":"U","EPHEMERIS_TYPE":"0","COUNTRY_CODE":"US","RCS_SIZE":"LARGE","MEAN_ANOMALY":"284.5624","TLE_LINE1":"1 48444U 21040S   22028.56792475 -.00002033  00000-0 -11767-3 0  9995","BSTAR":"-0.00011767000000","LAUNCH_DATE":"2021-05-09","SEMIMAJOR_AXIS":"6925.378","RA_OF_ASC_NODE":"80.4116","APOAPSIS":"548.082","REV_AT_EPOCH":"4037","DECAY_DATE":null,"REF_FRAME":"TEME","NORAD_CAT_ID":"48444","OBJECT_TYPE":"PAYLOAD","TIME_SYSTEM":"UTC","FILE":"3285972","ARG_OF_PERICENTER":"75.5499","TLE_LINE2":"2 48444  53.0567  80.4116 0001211  75.5499 284.5624 15.06390276 40370","MEAN_ELEMENT_THEORY":"SGP4","ELEMENT_SET_NO":"999","MEAN_MOTION":"15.06390276","OBJECT_ID":"2021-040S"},{"MEAN_MOTION":"15.06389074","ELEMENT_SET_NO":"999","OBJECT_ID":"2021-040T","OBJECT_TYPE":"PAYLOAD","TIME_SYSTEM":"UTC","FILE":"3285972","ARG_OF_PERICENTER":"78.7058","TLE_LINE2":"2 48445  53.0571  80.4367 0001452  78.7058 281.4094 15.06389074 40378","MEAN_ELEMENT_THEORY":"SGP4","APOAPSIS":"548.253","DECAY_DATE":null,"REV_AT_EPOCH":"4037","NORAD_CAT_ID":"48445","REF_FRAME":"TEME","TLE_LINE1":"1 48445U 21040T   22028.56424587 -.00000494  00000-0 -14303-4 0  9991","MEAN_ANOMALY":"281.4094","RA_OF_ASC_NODE":"80.4367","LAUNCH_DATE":"2021-05-09","BSTAR":"-0.00001430300000","SEMIMAJOR_AXIS":"6925.382","EPHEMERIS_TYPE":"0","COUNTRY_CODE":"US","RCS_SIZE":"LARGE","CENTER_NAME":"EARTH","SITE":"AFETR","GP_ID":"194814558","OBJECT_NAME":"STARLINK-2634","CLASSIFICATION_TYPE":"U","EPOCH":"2022-01-28T13:32:30.843168","PERIAPSIS":"546.241","ECCENTRICITY":"0.00014520","MEAN_MOTION_DOT":"-0.00000494","PERIOD":"95.593","MEAN_MOTION_DDOT":"0.0000000000000","INCLINATION":"53.0571"},{"GP_ID":"194844854","EPOCH":"2022-01-28T15:02:41.669088","PERIAPSIS":"546.388","CLASSIFICATION_TYPE":"U","OBJECT_NAME":"STARLINK-2247","CENTER_NAME":"EARTH","SITE":"AFETR","INCLINATION":"53.0551","MEAN_MOTION_DDOT":"0.0000000000000","ECCENTRICITY":"0.00012750","MEAN_MOTION_DOT":"-0.00010726","PERIOD":"95.593","SEMIMAJOR_AXIS":"6925.406","LAUNCH_DATE":"2021-05-09","BSTAR":"-0.00070262000000","RA_OF_ASC_NODE":"80.1452","MEAN_ANOMALY":"294.3309","TLE_LINE1":"1 48446U 21040U   22028.62687117 -.00010726  00000-0 -70262-3 0  9993","COUNTRY_CODE":"US","RCS_SIZE":"LARGE","EPHEMERIS_TYPE":"0","FILE":"3286235","ARG_OF_PERICENTER":"65.7813","MEAN_ELEMENT_THEORY":"SGP4","TLE_LINE2":"2 48446  53.0551  80.1452 0001275  65.7813 294.3309 15.06381200 40383","OBJECT_TYPE":"PAYLOAD","TIME_SYSTEM":"UTC","REV_AT_EPOCH":"4038","DECAY_DATE":null,"REF_FRAME":"TEME","NORAD_CAT_ID":"48446","APOAPSIS":"548.154","OBJECT_ID":"2021-040U","ELEMENT_SET_NO":"999","MEAN_MOTION":"15.06381200"}];
